IRIDIUM 26              
1 24903U 97043A   24237.94417904  .00001032  00000+0  34504-3 0  9991
2 24903  86.3928 234.8943 0002322  85.0455 275.1007 14.36515896414206
DUMMY MASS 1            
1 24925U 97048A   24238.13474017  .00000840  00000+0  92071-4 0  9990
2 24925  86.3300 272.1239 0009035 109.5750 250.6451 14.86364888461385
DUMMY MASS 2            
1 24926U 97048B   24238.18259920  .00000846  00000+0  93264-4 0  9991
2 24926  86.3301 273.6579 0009652 118.6835 241.5361 14.86122492461179
IRIDIUM 29              
1 24944U 97051A   24237.82531446  .00000790  00000+0  26631-3 0  9992
2 24944  86.3905 268.1198 0002418  96.9807 263.1665 14.35848026410730
IRIDIUM 33              
1 24946U 97051C   24237.84734984  .00000527  00000+0  18021-3 0  9990
2 24946  86.3820 267.3578 0006844 341.2157  18.8785 14.34467915410250
IRIDIUM 28              
1 24948U 97051E   24238.13185697  .00000777  00000+0  25667-3 0  9997
2 24948  86.3909 265.6733 0002115  81.2109 278.9327 14.36804053411396
